[{"OBJECT_NAME":"STARLINK-32567","OBJECT_ID":"2024-207U","EPOCH":"2026-03-09T23:14:47.109120","MEAN_MOTION":15.27586264,"ECCENTRICITY":6.466e-5,"INCLINATION":42.9999,"RA_OF_ASC_NODE":276.7809,"ARG_OF_PERICENTER":254.6199,"MEAN_ANOMALY":105.4581,"EPHEMERIS_TYPE":0,"CLASSIFICATION_TYPE":"U","NORAD_CAT_ID":61930,"ELEMENT_SET_NO":999,"REV_AT_EPOCH":7539,"BSTAR":0.00089892393,"MEAN_MOTION_DOT":0.00024561,"MEAN_MOTION_DDOT":0},{"OBJECT_NAME":"TEVEL2-2","OBJECT_ID":"2025-052K","EPOCH":"2026-03-09T15:33:48.895776","MEAN_MOTION":15.30343745,"ECCENTRICITY":0.0004693,"INCLINATION":97.3987,"RA_OF_ASC_NODE":324.77,"ARG_OF_PERICENTER":105.793,"MEAN_ANOMALY":254.3828,"EPHEMERIS_TYPE":0,"CLASSIFICATION_TYPE":"U","NORAD_CAT_ID":63219,"ELEMENT_SET_NO":999,"REV_AT_EPOCH":5485,"BSTAR":0.00069428,"MEAN_MOTION_DOT":0.00020339,"MEAN_MOTION_DDOT":0}]
