STARLINK-32567          
1 61930U 24207U   26068.96860080  .00024561  00000+0  89892-3 0  9999
2 61930  42.9999 276.7809 0000647 254.6199 105.4581 15.27586264 75399
TEVEL2-2                
1 63219U 25052K   26068.64848259  .00020339  00000+0  69428-3 0  9991
2 63219  97.3987 324.7700 0004693 105.7930 254.3828 15.30343745 54855
